OBJECT_NAME,OBJECT_ID,EPOCH,MEAN_MOTION,ECCENTRICITY,INCLINATION,RA_OF_ASC_NODE,ARG_OF_PERICENTER,MEAN_ANOMALY,EPHEMERIS_TYPE,CLASSIFICATION_TYPE,NORAD_CAT_ID,ELEMENT_SET_NO,REV_AT_EPOCH,BSTAR,MEAN_MOTION_DOT,MEAN_MOTION_DDOT
S-NET B,2018-014H,2026-05-13T16:47:07.836000,15.16304152,.0010349,97.5397,38.6956,126.3271,233.8918,0,U,43187,999,45353,.16071E-3,.3049E-4,0
S-NET A,2018-014J,2026-05-13T07:00:05.065920,15.16337876,.0010205,97.5407,38.4927,128.1779,232.0374,0,U,43188,999,45347,.15833E-3,.3006E-4,0
S-NET C,2018-014K,2026-05-13T07:22:16.297248,15.16292411,.0011693,97.5425,38.5774,122.6220,237.6143,0,U,43189,999,45202,.14519E-3,.2748E-4,0
PAZ,2018-020A,2026-05-13T20:31:55.042752,15.19151778,.0001724,97.4458,141.7288,87.3326,272.8105,0,U,43215,999,45579,.58312E-4,.1158E-4,0
GOES 17,2018-022A,2026-05-13T19:14:55.525056,1.00271416,.0000557,0.8498,86.1747,325.6412,18.9928,0,U,43226,999,3007,0,-.168E-5,0
LKW-4,2018-025A,2026-05-13T11:01:54.244704,15.59568661,.0003174,97.6324,301.6954,84.6830,275.4788,0,U,43236,999,45461,.34791E-3,.27586E-3,0
ZHUHAI-1 OVS-02,2018-040B,2026-05-13T20:14:40.102944,15.24549500,.0004708,97.0411,153.1189,47.3046,312.8589,0,U,43440,999,44748,.18124E-3,.4397E-4,0
ZHUHAI-1 OHS-02,2018-040C,2026-05-13T20:20:13.683840,15.25362748,.0009154,97.0400,160.0281,6.4258,353.7096,0,U,43441,999,10904,.19849E-3,.4945E-4,0
GAOFEN-6,2018-048A,2026-05-13T20:24:15.024960,14.76586844,.0010616,97.7779,197.7886,289.3893,70.6169,0,U,43484,999,42832,-.38609E-4,-.319E-5,0
LUOJIA-1 01,2018-048B,2026-05-13T20:39:34.916256,14.87151100,.0007741,97.8103,212.6024,228.1123,131.9433,0,U,43485,999,42911,.12369E-3,.1058E-4,0
PAKTES 1A,2018-056A,2026-05-13T21:27:48.135168,14.98904702,.0021461,98.1216,288.9318,222.3474,137.6092,0,U,43529,999,42678,.13663E-3,.1593E-4,0
PRSS-1,2018-056B,2026-05-13T19:44:16.238688,14.81932857,.0001806,97.7833,202.6421,94.2308,265.9112,0,U,43530,999,42334,.95098E-4,.702E-5,0
HAIYANG-1C,2018-068A,2026-05-13T20:24:04.237056,14.34167091,.0010595,98.5200,206.6519,190.0483,170.0492,0,U,43609,999,40216,-.36591E-4,-.146E-5,0
SSTL S1-4,2018-071A,2026-05-12T15:25:26.835744,14.96198353,.000114,97.5075,5.7265,61.8279,298.3058,0,U,43618,999,41762,.17212E-4,.14E-5,0
HAIYANG-2B,2018-081A,2026-05-13T20:27:08.890272,13.79305780,.0001683,99.3301,143.1256,51.5173,308.6130,0,U,43655,999,38019,-.86478E-4,-.133E-5,0
CFOSAT,2018-083A,2026-05-13T20:18:49.010112,15.16481457,.0001843,97.3616,139.3879,61.0709,299.0709,0,U,43662,999,41723,.11178E-3,.2111E-4,0
TEN-KOH,2018-084G,2026-05-13T12:02:01.029120,15.02777588,.0008281,98.0763,324.4088,229.6912,130.3589,0,U,43677,999,41095,.55038E-4,.67E-5,0
DIWATA-2B,2018-084H,2026-05-13T19:46:01.221600,15.00276430,.0011927,98.1106,328.5591,289.7056,70.2879,0,U,43678,999,41106,.14199E-3,.1715E-4,0
STARS-AO,2018-084J,2026-05-13T13:44:15.760896,15.16654167,.0000723,98.0544,345.4153,309.2450,50.8717,0,U,43679,999,41222,.17917E-3,.343E-4,0
AUTCUBE 2,2018-084K,2026-05-13T12:08:25.687104,15.09843357,.0009651,98.0742,337.8435,152.8496,207.3238,0,U,43681,999,41169,.17143E-3,.2704E-4,0
METOP-C,2018-087A,2026-05-13T18:56:32.241120,14.21502288,.0000275,98.6662,194.0177,120.9399,239.1805,0,U,43689,999,38994,.46728E-4,.59E-6,0
ES'HAIL 2,2018-090A,2026-05-13T19:47:52.363968,1.00274598,.0001558,0.0131,272.0629,175.0833,107.2537,0,U,43700,999,2733,0,.158E-5,0
MOHAMMED VI-B,2018-095A,2026-05-13T19:57:53.578368,14.77070393,.0001299,97.9564,206.6277,77.3281,282.8074,0,U,43717,999,40311,.63258E-4,.396E-5,0
HYSIS,2018-096A,2026-05-13T20:02:25.658880,14.78619938,.000084,97.9854,200.8489,101.3909,258.7397,0,U,43719,999,40234,.80158E-4,.535E-5,0
COSMOS 2530 (RODNIK-S 16),2018-097A,2026-05-13T20:14:24.062784,12.42879938,.0020793,82.5142,243.5924,110.9812,249.3495,0,U,43751,999,33802,-.14014E-2,-.184E-5,0
COSMOS 2531 (RODNIK-S 17),2018-097B,2026-05-13T20:47:42.170784,12.42911943,.0017863,82.5187,244.6250,128.7025,231.5655,0,U,43752,999,33804,-.58887E-3,-.72E-6,0
COSMOS 2532 (RODNIK-S 18),2018-097C,2026-05-13T19:32:22.736256,12.42908513,.0019225,82.5132,243.4590,130.9709,229.3038,0,U,43753,999,33800,-.81553E-3,-.103E-5,0
MINXSS-2,2018-099A,2026-05-13T17:10:18.134688,15.44592940,.0007426,97.4551,209.0529,41.3330,318.8479,0,U,43758,999,40880,.47612E-3,.22104E-3,0
SIRION PATHFINDER-2,2018-099B,2026-05-13T02:17:32.962560,15.14216957,.0010238,97.4282,182.9909,67.3448,292.8866,0,U,43759,999,40731,.18446396E-3,.3308E-4,0
AISTECHSAT 2,2018-099L,2026-05-13T14:49:06.866112,15.15081199,.000616,97.4324,182.4126,69.8696,290.3199,0,U,43768,999,40704,.2056E-3,.3784E-4,0
