S-NET B                 
1 43187U 18014H   26133.69939625  .00003049  00000+0  16071-3 0  9994
2 43187  97.5397  38.6956 0010349 126.3271 233.8918 15.16304152453533
S-NET A                 
1 43188U 18014J   26133.29172530  .00003006  00000+0  15833-3 0  9993
2 43188  97.5407  38.4927 0010205 128.1779 232.0374 15.16337876453475
S-NET C                 
1 43189U 18014K   26133.30713307  .00002748  00000+0  14519-3 0  9991
2 43189  97.5425  38.5774 0011693 122.6220 237.6143 15.16292411452029
PAZ                     
1 43215U 18020A   26133.85549818  .00001158  00000+0  58312-4 0  9996
2 43215  97.4458 141.7288 0001724  87.3326 272.8105 15.19151778455798
GOES 17                 
1 43226U 18022A   26133.80203154 -.00000168  00000+0  00000+0 0  9992
2 43226   0.8498  86.1747 0000557 325.6412  18.9928  1.00271416 30070
LKW-4                   
1 43236U 18025A   26133.45965561  .00027586  00000+0  34791-3 0  9994
2 43236  97.6324 301.6954 0003174  84.6830 275.4788 15.59568661454616
ZHUHAI-1 OVS-02         
1 43440U 18040B   26133.84351971  .00004397  00000+0  18124-3 0  9992
2 43440  97.0411 153.1189 0004708  47.3046 312.8589 15.24549500447488
ZHUHAI-1 OHS-02         
1 43441U 18040C   26133.84738060  .00004945  00000+0  19849-3 0  9995
2 43441  97.0400 160.0281 0009154   6.4258 353.7096 15.25362748109040
GAOFEN-6                
1 43484U 18048A   26133.85017390 -.00000319  00000+0 -38609-4 0  9996
2 43484  97.7779 197.7886 0010616 289.3893  70.6169 14.76586844428324
LUOJIA-1 01             
1 43485U 18048B   26133.86082079  .00001058  00000+0  12369-3 0  9997
2 43485  97.8103 212.6024 0007741 228.1123 131.9433 14.87151100429118
PAKTES 1A               
1 43529U 18056A   26133.89430712  .00001593  00000+0  13663-3 0  9991
2 43529  98.1216 288.9318 0021461 222.3474 137.6092 14.98904702426788
PRSS-1                  
1 43530U 18056B   26133.82241017  .00000702  00000+0  95098-4 0  9998
2 43530  97.7833 202.6421 0001806  94.2308 265.9112 14.81932857423342
HAIYANG-1C              
1 43609U 18068A   26133.85004904 -.00000146  00000+0 -36591-4 0  9990
2 43609  98.5200 206.6519 0010595 190.0483 170.0492 14.34167091402164
SSTL S1-4               
1 43618U 18071A   26132.64267171  .00000140  00000+0  17212-4 0  9998
2 43618  97.5075   5.7265 0001140  61.8279 298.3058 14.96198353417625
HAIYANG-2B              
1 43655U 18081A   26133.85218623 -.00000133  00000+0 -86478-4 0  9996
2 43655  99.3301 143.1256 0001683  51.5173 308.6130 13.79305780380197
CFOSAT                  
1 43662U 18083A   26133.84640058  .00002111  00000+0  11178-3 0  9996
2 43662  97.3616 139.3879 0001843  61.0709 299.0709 15.16481457417239
TEN-KOH                 
1 43677U 18084G   26133.50140080  .00000670  00000+0  55038-4 0  9998
2 43677  98.0763 324.4088 0008281 229.6912 130.3589 15.02777588410959
DIWATA-2B               
1 43678U 18084H   26133.82362525  .00001715  00000+0  14199-3 0  9997
2 43678  98.1106 328.5591 0011927 289.7056  70.2879 15.00276430411068
STARS-AO                
1 43679U 18084J   26133.57240464  .00003430  00000+0  17917-3 0  9994
2 43679  98.0544 345.4153 0000723 309.2450  50.8717 15.16654167412222
AUTCUBE 2               
1 43681U 18084K   26133.50585286  .00002704  00000+0  17143-3 0  9998
2 43681  98.0742 337.8435 0009651 152.8496 207.3238 15.09843357411694
METOP-C                 
1 43689U 18087A   26133.78926205  .00000059  00000+0  46728-4 0  9992
2 43689  98.6662 194.0177 0000275 120.9399 239.1805 14.21502288389949
ES'HAIL 2               
1 43700U 18090A   26133.82491162  .00000158  00000+0  00000+0 0  9992
2 43700   0.0131 272.0629 0001558 175.0833 107.2537  1.00274598 27331
MOHAMMED VI-B           
1 43717U 18095A   26133.83187012  .00000396  00000+0  63258-4 0  9995
2 43717  97.9564 206.6277 0001299  77.3281 282.8074 14.77070393403114
HYSIS                   
1 43719U 18096A   26133.83501920  .00000535  00000+0  80158-4 0  9999
2 43719  97.9854 200.8489 0000840 101.3909 258.7397 14.78619938402344
COSMOS 2530 (RODNIK-S *)
1 43751U 18097A   26133.84333406 -.00000184  00000+0 -14014-2 0  9997
2 43751  82.5142 243.5924 0020793 110.9812 249.3495 12.42879938338021
COSMOS 2531 (RODNIK-S *)
1 43752U 18097B   26133.86646031 -.00000072  00000+0 -58887-3 0  9994
2 43752  82.5187 244.6250 0017863 128.7025 231.5655 12.42911943338048
COSMOS 2532 (RODNIK-S *)
1 43753U 18097C   26133.81415204 -.00000103  00000+0 -81553-3 0  9997
2 43753  82.5132 243.4590 0019225 130.9709 229.3038 12.42908513338006
MINXSS-2                
1 43758U 18099A   26133.71548767  .00022104  00000+0  47612-3 0  9995
2 43758  97.4551 209.0529 0007426  41.3330 318.8479 15.44592940408803
SIRION PATHFINDER-2     
1 43759U 18099B   26133.09552040  .00003308  00000+0  18446-3 0  9994
2 43759  97.4282 182.9909 0010238  67.3448 292.8866 15.14216957407313
AISTECHSAT 2            
1 43768U 18099L   26133.61744058  .00003784  00000+0  20560-3 0  9992
2 43768  97.4324 182.4126 0006160  69.8696 290.3199 15.15081199407048
